0 ARIANE 42P+ DEB
1 26850U 92072K   13283.23587879  .00000150  00000-0  11373-1 0  1801
2 26850 007.3508 200.6555 6454820 103.7375 331.2088 02.90087117149132
0 ARIANE 42P+ DEB
1 26850U 92072K   13287.71461384  .00000224  00000-0  14007-1 0  1821
2 26850 007.3525 198.4740 6454318 107.9507 328.4268 02.90089321149267
0 ARIANE 42P+ DEB
1 26850U 92072K   13287.71461603  .00000180  00000-0  11373-1 0  1818
2 26850 007.3566 198.5344 6452674 107.9380 328.4369 02.90089920149262
0 ARIANE 42P+ DEB
1 26850U 92072K   13292.88198034  .00000170  00000-0  13587-1 0  1837
2 26850 007.3530 195.9456 6452638 112.8706 324.8267 02.90091778149413
0 ARIANE 42P+ DEB
1 26850U 92072K   13292.88198799  .00000114  00000-0  98145-2 0  1848
2 26850 007.3554 195.9566 6454313 112.8071 324.8441 02.90093054149411
0 ARIANE 42P+ DEB
1 26850U 92072K   13294.94877334  .00000141  00000-0  12801-1 0  1851
2 26850 007.3567 194.9502 6453965 114.7522 323.2684 02.90094633149470
